MEAN_MOTION;ECCENTRICITY;INCLINATION;RA_OF_ASC_NODE;ARG_OF_PERICENTER;MEAN_ANOMALY;BSTAR;MEAN_MOTION_DOT;MEAN_MOTION_DDOT;TYPE
14.54767274;0.0002261;47.0023;235.3448;333.5234;26.5534;1.829E-5;-8.7E-7;0;Orbcomm
14.54767384;0.0002228;47.0023;232.4412;335.6578;24.42;1.7751E-5;-8.9E-7;0;Orbcomm
14.54767448;0.00022;47.0024;230.5057;337.1313;22.9473;1.7336E-5;-9.1E-7;0;Orbcomm
14.54767593;0.0002164;47.0024;227.6021;339.2717;20.8079;1.7785E-5;-8.9E-7;0;Orbcomm
14.54767686;0.0002144;47.0024;225.9892;340.6542;19.426;1.8596E-5;-8.5E-7;0;Orbcomm
14.54767795;0.0002101;47.0025;222.7631;343.004;17.0774;1.7285E-5;-9.1E-7;0;Orbcomm
14.54767854;0.0002089;47.0025;221.4727;344.1985;15.8834;1.7752E-5;-8.9E-7;0;Orbcomm
14.54767993;0.000205;47.0025;218.5692;346.327;13.7558;1.7789E-5;-8.9E-7;0;Orbcomm
14.54724807;0.0002158;47.002;212.1168;344.6434;15.4384;1.8633E-5;-8.5E-7;0;Orbcomm
14.54721302;0.0002278;47.0013;208.8917;355.7681;4.3184;1.888E-5;-8.4E-7;0;Orbcomm
14.54721136;0.0002122;47.0023;204.3753;357.1265;2.9606;2.0308E-5;-7.8E-7;0;Orbcomm
14.54721588;0.0002017;47.0025;197.9235;2.7664;357.3231;2.1472E-5;-7.3E-7;0;Orbcomm
14.54721625;0.000199;47.0025;197.6008;3.4111;356.6787;2.1265E-5;-7.4E-7;0;Orbcomm
14.54721886;0.0001923;47.0027;193.4072;7.6524;352.4389;2.8321E-5;-4.3E-7;0;Orbcomm
14.54722005;0.0001871;47.0028;190.1812;10.8277;349.2647;2.6116E-5;-5.3E-7;0;Orbcomm
14.54722136;0.0001867;47.0028;188.891;12.2275;347.8654;2.9541E-5;-3.8E-7;0;Orbcomm
14.54722307;0.0001816;47.0029;185.3425;15.7195;344.3745;2.9078E-5;-4.0E-7;0;Orbcomm
14.54722618;0.0001755;47.0029;180.5038;20.5797;339.5157;3.0566E-5;-3.4E-7;0;Orbcomm
14.54722618;0.0001755;47.0029;180.5038;20.5797;339.5157;3.0566E-5;-3.4E-7;0;Orbcomm
14.54722901;0.0001696;47.0028;175.9876;25.2495;334.8472;3.0191E-5;-3.5E-7;0;Orbcomm
14.54723155;0.0001641;47.0028;171.4714;30.0984;329.9995;2.9382E-5;-3.9E-7;0;Orbcomm
14.54723176;0.0001639;47.0027;171.1489;30.5464;329.5515;2.9622E-5;-3.8E-7;0;Orbcomm
14.54723425;0.0001585;47.0026;166.6326;35.5183;324.5806;2.9142E-5;-4.0E-7;0;Orbcomm
14.54723491;0.000158;47.0026;165.6649;36.7011;323.3981;2.9394E-5;-3.9E-7;0;Orbcomm
14.54723765;0.0001526;47.0026;161.1488;42.0836;318.0166;3.0414E-5;-3.4E-7;0;Orbcomm
14.54723956;0.0001483;47.0025;157.2776;46.8814;313.2194;3.0773E-5;-3.3E-7;0;Orbcomm
14.54724193;0.0001442;47.0024;152.7613;52.6023;307.4992;3.1769E-5;-2.8E-7;0;Orbcomm
14.54724228;0.0001437;47.0024;152.1161;53.4869;306.6148;3.199E-5;-2.7E-7;0;Orbcomm
14.54724453;0.0001404;47.0023;147.9224;59.0315;301.0707;3.262E-5;-2.5E-7;0;Orbcomm
14.54724689;0.0001374;47.0023;143.4061;65.0534;295.0493;3.294E-5;-2.3E-7;0;Orbcomm
14.54724706;0.0001374;47.0023;143.0835;65.3685;294.7342;3.3081E-5;-2.3E-7;0;Orbcomm
14.5472495;0.0001351;47.0023;138.5672;71.7806;288.3225;3.2718E-5;-2.4E-7;0;Orbcomm
14.54725092;0.0001339;47.0023;136.3091;74.7117;285.3915;3.2273E-5;-2.6E-7;0;Orbcomm
14.54725206;0.0001336;47.0023;133.7284;78.7254;281.3781;3.1224E-5;-3.1E-7;0;Orbcomm
14.54725218;0.0001335;47.0023;133.4058;78.9164;281.187;3.0936E-5;-3.2E-7;0;Orbcomm
14.54725296;0.0001324;47.0023;131.7928;80.9657;279.1377;2.9925E-5;-3.6E-7;0;Orbcomm
14.54725537;0.0001313;47.0023;126.9539;88.0122;272.0913;2.8102E-5;-4.4E-7;0;Orbcomm
14.54725563;0.0001314;47.0022;125.986;89.8053;270.2981;2.6882E-5;-4.9E-7;0;Orbcomm
14.54725721;0.0001309;47.0023;122.4375;94.456;265.6474;2.4562E-5;-5.9E-7;0;Orbcomm
14.54725783;0.0001315;47.0022;121.1471;96.7158;263.3876;2.3899E-5;-6.2E-7;0;Orbcomm
14.54725944;0.0001313;47.0022;117.5985;101.2443;258.8589;2.3577E-5;-6.4E-7;0;Orbcomm
14.54726003;0.0001321;47.0022;116.3081;103.3544;256.7488;2.2826E-5;-6.7E-7;0;Orbcomm
14.54726133;0.0001323;47.0022;113.0821;107.5108;252.5921;2.2238E-5;-6.9E-7;0;Orbcomm
14.54726262;0.0001337;47.0022;110.8239;110.9191;249.1836;2.3571E-5;-6.4E-7;0;Orbcomm
14.54726374;0.0001342;47.0023;108.243;114.4064;245.696;2.3419E-5;-6.4E-7;0;Orbcomm
14.54726495;0.0001363;47.0023;105.6622;117.8655;242.2367;2.374E-5;-6.3E-7;0;Orbcomm
14.54726604;0.0001369;47.0023;103.4039;121.3631;238.7387;2.418E-5;-6.1E-7;0;Orbcomm
14.54726725;0.0001389;47.0024;101.1458;124.1999;235.9016;2.484E-5;-5.8E-7;0;Orbcomm
14.54726812;0.0001407;47.0025;97.9197;128.049;232.0522;2.3189E-5;-6.5E-7;0;Orbcomm
14.5472689;0.0001423;47.0025;96.3068;130.1771;229.9238;2.3336E-5;-6.5E-7;0;Orbcomm
14.54727019;0.0001447;47.0027;93.0807;134.4873;225.613;2.2326E-5;-6.9E-7;0;Orbcomm
14.54727083;0.0001456;47.0027;91.7904;135.7674;224.3327;2.3068E-5;-6.6E-7;0;Orbcomm
14.54727358;0.0001515;47.003;84.6933;144.2893;215.8093;2.1602E-5;-7.2E-7;0;Orbcomm
14.54727594;0.0001568;47.0032;79.8544;149.8048;210.2926;2.0826E-5;-7.6E-7;0;Orbcomm
14.54727686;0.0001591;47.0033;77.919;151.7484;208.3487;2.1013E-5;-7.5E-7;0;Orbcomm
14.54727888;0.0001643;47.0034;73.0801;156.7537;203.3422;2.0307E-5;-7.8E-7;0;Orbcomm
14.54727953;0.0001653;47.0035;71.7898;158.5832;201.5121;2.0103E-5;-7.9E-7;0;Orbcomm
14.54728207;0.0001724;47.0036;66.3057;164.7685;195.3252;2.0555E-5;-7.7E-7;0;Orbcomm
14.54728214;0.0001731;47.0036;65.9831;164.9279;195.1657;2.0072E-5;-7.9E-7;0;Orbcomm
14.54728415;0.0001784;47.0038;61.4668;169.3888;190.7034;2.1152E-5;-7.4E-7;0;Orbcomm
14.54728556;0.0001808;47.0039;59.5314;171.4067;188.6849;2.3019E-5;-6.6E-7;0;Orbcomm
14.54728744;0.0001857;47.004;55.3378;175.5121;184.578;2.3856E-5;-6.3E-7;0;Orbcomm
14.54728805;0.0001871;47.004;54.6925;175.9558;184.1341;2.4881E-5;-5.8E-7;0;Orbcomm
14.54729057;0.0001927;47.0042;50.499;179.9143;180.1742;2.7303E-5;-4.8E-7;0;Orbcomm
14.5472908;0.000193;47.0042;50.1764;180.1323;179.9561;2.7499E-5;-4.7E-7;0;Orbcomm
14.54729322;0.0001987;47.0044;45.6602;184.1948;175.892;2.8667E-5;-4.2E-7;0;Orbcomm
14.54729641;0.0002046;47.0045;40.8216;188.2681;171.8169;3.0638E-5;-3.3E-7;0;Orbcomm
14.54729816;0.0002085;47.0046;37.9184;190.8411;169.2429;3.0366E-5;-3.4E-7;0;Orbcomm
14.54730107;0.0002142;47.0047;33.0798;194.7273;165.3549;3.0806E-5;-3.3E-7;0;Orbcomm
14.54730187;0.0002153;47.0047;31.7895;195.5655;164.5163;3.1484E-5;-3.0E-7;0;Orbcomm
14.54730384;0.0002199;47.0047;28.5637;197.975;162.1057;3.1513E-5;-2.9E-7;0;Orbcomm
14.54730508;0.0002215;47.0047;26.9509;199.2877;160.7923;3.2437E-5;-2.5E-7;0;Orbcomm
14.5473069;0.0002254;47.0048;23.725;201.8166;158.2623;3.1486E-5;-3.0E-7;0;Orbcomm
14.54730925;0.0002303;47.0047;19.5315;205.1531;154.9241;3.1698E-5;-2.9E-7;0;Orbcomm
14.54731224;0.000236;47.0046;14.6929;208.985;151.0903;3.2881E-5;-2.4E-7;0;Orbcomm
14.54731298;0.0002369;47.0046;13.4026;209.9408;150.1341;3.3317E-5;-2.2E-7;0;Orbcomm
14.54731525;0.0002412;47.0046;10.1767;212.3375;147.7361;3.3975E-5;-1.9E-7;0;Orbcomm
14.54731597;0.0002421;47.0046;8.8864;213.2572;146.816;3.4507E-5;-1.7E-7;0;Orbcomm
14.54731723;0.0002439;47.0046;6.6283;215.2844;144.7879;3.4356E-5;-1.7E-7;0;Orbcomm
14.5473179;0.0002454;47.0046;5.6605;215.9102;144.1618;3.4015E-5;-1.9E-7;0;Orbcomm
14.54731889;0.0002464;47.0045;4.0477;217.0933;142.9781;3.4587E-5;-1.6E-7;0;Orbcomm
14.54732045;0.0002491;47.0045;1.7896;218.7163;141.3542;3.5399E-5;-1.3E-7;0;Orbcomm
14.54732124;0.0002513;47.0045;0.4992;219.5585;140.5116;3.4994E-5;-1.4E-7;0;Orbcomm
14.54732218;0.0002519;47.0045;359.209;220.5031;139.5666;3.5501E-5;-1.2E-7;0;Orbcomm
14.54732381;0.0002557;47.0045;355.6605;223.0188;137.0496;3.2945E-5;-2.3E-7;0;Orbcomm
14.54732554;0.0002587;47.0044;351.467;226.2421;133.8249;3.0127E-5;-3.6E-7;0;Orbcomm
14.54732617;0.0002603;47.0044;350.8218;226.5222;133.5446;3.1327E-5;-3.0E-7;0;Orbcomm
14.54732857;0.000265;47.0043;346.6282;229.2521;130.8134;3.0488E-5;-3.4E-7;0;Orbcomm
14.54732866;0.0002652;47.0043;346.3056;229.475;130.5904;3.0341E-5;-3.5E-7;0;Orbcomm
14.54733122;0.0002686;47.0042;340.8217;233.4383;126.6254;2.8187E-5;-4.4E-7;0;Orbcomm
14.54733531;0.0002757;47.0039;332.4342;239.1557;120.9056;2.7939E-5;-4.5E-7;0;Orbcomm
14.54733545;0.0002757;47.0039;332.1117;239.4083;120.6529;2.8037E-5;-4.5E-7;0;Orbcomm
14.54733583;0.0002759;47.0039;331.4665;239.9001;120.161;2.8032E-5;-4.5E-7;0;Orbcomm
14.54733859;0.000279;47.0038;327.5953;242.5335;117.5265;3.119E-5;-3.1E-7;0;Orbcomm
14.5473389;0.000279;47.0038;326.9501;243.065;116.9949;3.1129E-5;-3.1E-7;0;Orbcomm
14.54734038;0.0002811;47.0037;322.7564;246.2176;113.8414;2.8944E-5;-4.1E-7;0;Orbcomm
14.54734188;0.0002833;47.0037;320.1755;248.0063;112.052;2.9313E-5;-3.9E-7;0;Orbcomm
14.54734296;0.0002842;47.0037;318.24;249.1322;110.9258;2.9375E-5;-3.9E-7;0;Orbcomm
14.54734749;0.0002863;47.0037;314.3688;251.8413;108.2159;3.7634E-5;-3.0E-8;0;Orbcomm
14.5473462;0.0002864;47.0037;313.4011;252.4799;107.5772;3.0779E-5;-3.3E-7;0;Orbcomm
14.54734865;0.0002893;47.0036;308.8847;255.3484;104.7079;2.9203E-5;-4.0E-7;0;Orbcomm
14.54735095;0.000291;47.0036;304.0459;258.7646;101.2911;2.6891E-5;-5.0E-7;0;Orbcomm
14.54735115;0.0002911;47.0036;303.7233;258.9646;101.091;2.6652E-5;-5.1E-7;0;Orbcomm
14.54735311;0.0002922;47.0035;299.207;262.1555;97.8997;2.4331E-5;-6.1E-7;0;Orbcomm
14.54735486;0.0002933;47.0035;295.0134;265.1318;94.9232;2.3106E-5;-6.6E-7;0;Orbcomm
14.5473569;0.0002943;47.0034;290.1745;268.3996;91.6551;2.2173E-5;-7.0E-7;0;Orbcomm
14.54735706;0.0002942;47.0034;289.8519;268.6432;91.4115;2.2053E-5;-7.0E-7;0;Orbcomm
14.54735846;0.0002946;47.0034;286.6259;270.9411;89.1136;2.2037E-5;-7.1E-7;0;Orbcomm
14.54735891;0.0002941;47.0034;285.3356;271.9753;88.0794;2.2151E-5;-7.0E-7;0;Orbcomm
14.54736001;0.0002953;47.0034;282.7548;273.6644;86.3902;2.2539E-5;-6.8E-7;0;Orbcomm
14.54736077;0.0002944;47.0033;280.8193;275.0342;85.0206;2.2714E-5;-6.8E-7;0;Orbcomm
14.54736204;0.0002948;47.0033;277.5933;277.3078;82.7471;2.2738E-5;-6.8E-7;0;Orbcomm
14.54736251;0.0002947;47.0033;276.6256;277.9185;82.1364;2.3437E-5;-6.4E-7;0;Orbcomm
14.54736276;0.0002945;47.0033;275.9804;278.4187;81.6363;2.3168E-5;-6.6E-7;0;Orbcomm
14.54736433;0.0002942;47.0033;271.7867;281.245;78.8103;2.289E-5;-6.7E-7;0;Orbcomm
14.54736457;0.0002942;47.0033;271.1415;281.7214;78.334;2.2607E-5;-6.8E-7;0;Orbcomm
14.54736605;0.0002932;47.0033;266.9478;284.7337;75.3222;2.231E-5;-6.9E-7;0;Orbcomm
14.54736619;0.0002929;47.0033;266.6252;284.9939;75.0621;2.2203E-5;-7.0E-7;0;Orbcomm
